{
  "norad_id": 56167,
  "name": "CHECKMATE 2",
  "history": [
    {
      "epoch": "2026-03-28T21:09:58.052160Z",
      "apogee_km": 951.1354267233628,
      "perigee_km": 940.2628989861587,
      "latitude_deg": -1.753589291558859e-05,
      "longitude_deg": 4.939115428967552,
      "height_km": 953.7778226985175,
      "semi_major_axis_km": 7323.836162854761,
      "eccentricity": 0.00074227,
      "inclination_deg": 81.0051,
      "raan_deg": 148.727,
      "arg_perigee_deg": 163.9209,
      "mean_anomaly_deg": 196.2184,
      "mean_motion_rev_day": 13.85143701
    },
    {
      "epoch": "2026-03-29T04:06:02.043072Z",
      "apogee_km": 951.1448181962842,
      "perigee_km": 940.2528095738735,
      "latitude_deg": -2.0381850459888623e-05,
      "longitude_deg": -99.63940118855622,
      "height_km": 953.7666494798915,
      "semi_major_axis_km": 7323.835813885078,
      "eccentricity": 0.0007436,
      "inclination_deg": 81.0051,
      "raan_deg": 148.4499,
      "arg_perigee_deg": 163.1775,
      "mean_anomaly_deg": 196.9629,
      "mean_motion_rev_day": 13.851438
    },
    {
      "epoch": "2026-03-30T02:38:15.004032Z",
      "apogee_km": 951.1711791246098,
      "perigee_km": 940.2249752182697,
      "latitude_deg": 2.6914025404337444e-05,
      "longitude_deg": -79.5193561671498,
      "height_km": 953.722172471083,
      "semi_major_axis_km": 7323.8350771714395,
      "eccentricity": 0.0007473,
      "inclination_deg": 81.0048,
      "raan_deg": 147.5495,
      "arg_perigee_deg": 160.8354,
      "mean_anomaly_deg": 199.3085,
      "mean_motion_rev_day": 13.85144009
    },
    {
      "epoch": "2026-03-30T06:06:16.996896Z",
      "apogee_km": 951.177103534982,
      "perigee_km": 940.2188886604217,
      "latitude_deg": -4.2897896938425136e-05,
      "longitude_deg": -131.80866426924297,
      "height_km": 953.7155722254824,
      "semi_major_axis_km": 7323.834996097702,
      "eccentricity": 0.00074812,
      "inclination_deg": 81.0048,
      "raan_deg": 147.4109,
      "arg_perigee_deg": 160.4533,
      "mean_anomaly_deg": 199.6911,
      "mean_motion_rev_day": 13.85144032
    },
    {
      "epoch": "2026-03-30T14:46:21.979488Z",
      "apogee_km": 951.1898789197412,
      "perigee_km": 940.2055915838109,
      "latitude_deg": 7.881824110759242e-05,
      "longitude_deg": 97.4683103216658,
      "height_km": 953.6968808485568,
      "semi_major_axis_km": 7323.834735251776,
      "eccentricity": 0.0007499,
      "inclination_deg": 81.0047,
      "raan_deg": 147.0646,
      "arg_perigee_deg": 159.5245,
      "mean_anomaly_deg": 200.6214,
      "mean_motion_rev_day": 13.85144106
    },
    {
      "epoch": "2026-03-30T21:42:25.963488Z",
      "apogee_km": 951.1984276451531,
      "perigee_km": 940.19656346593,
      "latitude_deg": 2.8593268934573855e-05,
      "longitude_deg": -7.1101845849283105,
      "height_km": 953.6778306029503,
      "semi_major_axis_km": 7323.834495555541,
      "eccentricity": 0.0007511,
      "inclination_deg": 81.0047,
      "raan_deg": 146.7875,
      "arg_perigee_deg": 158.7391,
      "mean_anomaly_deg": 201.4079,
      "mean_motion_rev_day": 13.85144174
    },
    {
      "epoch": "2026-03-31T18:30:37.901664Z",
      "apogee_km": 951.22398915556,
      "perigee_km": 940.1693945810539,
      "latitude_deg": -3.1194825170469743e-06,
      "longitude_deg": 39.15450737800818,
      "height_km": 953.6227823549093,
      "semi_major_axis_km": 7323.833691868306,
      "eccentricity": 0.0007547,
      "inclination_deg": 81.0045,
      "raan_deg": 145.9563,
      "arg_perigee_deg": 156.603,
      "mean_anomaly_deg": 203.5471,
      "mean_motion_rev_day": 13.85144402
    },
    {
      "epoch": "2026-04-01T20:30:52.811424Z",
      "apogee_km": 951.2511388935491,
      "perigee_km": 940.1408842150204,
      "latitude_deg": 7.600559304873902e-07,
      "longitude_deg": 6.985433216526902,
      "height_km": 953.5372546263236,
      "semi_major_axis_km": 7323.833011554284,
      "eccentricity": 0.0007585,
      "inclination_deg": 81.0043,
      "raan_deg": 144.9173,
      "arg_perigee_deg": 153.8999,
      "mean_anomaly_deg": 206.2541,
      "mean_motion_rev_day": 13.85144595
    },
    {
      "epoch": "2026-04-02T10:23:00.753504Z",
      "apogee_km": 951.2680238366083,
      "perigee_km": 940.1224694470247,
      "latitude_deg": 1.5705618556373538e-06,
      "longitude_deg": 157.82856745836082,
      "height_km": 953.4880263135096,
      "semi_major_axis_km": 7323.832246641817,
      "eccentricity": 0.00076091,
      "inclination_deg": 81.0042,
      "raan_deg": 144.3631,
      "arg_perigee_deg": 152.4433,
      "mean_anomaly_deg": 207.7128,
      "mean_motion_rev_day": 13.85144812
    },
    {
      "epoch": "2026-04-02T20:47:06.703584Z",
      "apogee_km": 951.277815082407,
      "perigee_km": 940.1117546665519,
      "latitude_deg": -3.479794484754414e-05,
      "longitude_deg": 0.9608893321522921,
      "height_km": 953.4464595888085,
      "semi_major_axis_km": 7323.831784874479,
      "eccentricity": 0.00076231,
      "inclination_deg": 81.0041,
      "raan_deg": 143.9474,
      "arg_perigee_deg": 151.3556,
      "mean_anomaly_deg": 208.802,
      "mean_motion_rev_day": 13.85144943
    },
    {
      "epoch": "2026-04-03T14:07:16.616928Z",
      "apogee_km": 951.2982119311682,
      "perigee_km": 940.0898209436118,
      "latitude_deg": 2.0365740011649498e-05,
      "longitude_deg": 99.51492467295128,
      "height_km": 953.3773545830803,
      "semi_major_axis_km": 7323.83101643739,
      "eccentricity": 0.0007652,
      "inclination_deg": 81.004,
      "raan_deg": 143.2547,
      "arg_perigee_deg": 149.5632,
      "mean_anomaly_deg": 210.597,
      "mean_motion_rev_day": 13.85145161
    }
  ]
}